{"type": "FeatureCollection", "features": [ {"type": "Feature", "properties": {"norad_id": 34833, "name": "IRIDIUM 33 DEB", "group": "iridium-33-debris", "lat": 57.842932799186414, "lon": 52.0268237246439, "alt_km": 697.0962434579424, "timestamp": "2025-12-23T16:57:12.739386+00:00", "meta": {"OBJECT_NAME": "IRIDIUM 33 DEB", "OBJECT_ID": "1997-051MH", "EPOCH": "2025-12-21T03:45:30.832704", "MEAN_MOTION": 14.52421073, "ECCENTRICITY": 0.00214678, "INCLINATION": 86.3927, "RA_OF_ASC_NODE": 47.3667, "ARG_OF_PERICENTER": 72.8031, "MEAN_ANOMALY": 341.7014, "EPHEMERIS_TYPE": 0, "CLASSIFICATION_TYPE": "U", "NORAD_CAT_ID": 34833, "ELEMENT_SET_NO": 999, "REV_AT_EPOCH": 87837, "BSTAR": 0.00044712979, "MEAN_MOTION_DOT": 1.848e-05, "MEAN_MOTION_DDOT": 0}, "tle": {"line1": "1 34833U 97051MH  25355.15660686  .00001848  00000+0  44713-3 0  9993", "line2": "2 34833  86.3927  47.3667 0021467  72.8031 341.7014 14.52421073878374"}}, "geometry": {"type": "Point", "coordinates": [52.0268237246439, 57.842932799186414]}}, {"type": "Feature", "properties": {"norad_id": 34870, "name": "IRIDIUM 33 DEB", "group": "iridium-33-debris", "lat": -80.66752869942945, "lon": 152.17303834401196, "alt_km": 653.1881298536273, "timestamp": "2025-12-23T16:57:12.739403+00:00", "meta": {"OBJECT_NAME": "IRIDIUM 33 DEB", "OBJECT_ID": "1997-051MQ", "EPOCH": "2025-12-22T20:23:31.246080", "MEAN_MOTION": 14.76611259, "ECCENTRICITY": 0.00177501, "INCLINATION": 86.3115, "RA_OF_ASC_NODE": 309.4529, "ARG_OF_PERICENTER": 146.7714, "MEAN_ANOMALY": 243.206, "EPHEMERIS_TYPE": 0, "CLASSIFICATION_TYPE": "U", "NORAD_CAT_ID": 34870, "ELEMENT_SET_NO": 999, "REV_AT_EPOCH": 89060, "BSTAR": 0.0014600541, "MEAN_MOTION_DOT": 0.0001025, "MEAN_MOTION_DDOT": 0}, "tle": {"line1": "1 34870U 97051MQ  25356.84966720  .00010250  00000+0  14601-2 0  9998", "line2": "2 34870  86.3115 309.4529 0017750 146.7714 243.2060 14.76611259890602"}}, "geometry": {"type": "Point", "coordinates": [152.17303834401196, -80.66752869942945]}}, {"type": "Feature", "properties": {"norad_id": 34896, "name": "IRIDIUM 33 DEB", "group": "iridium-33-debris", "lat": 59.55962928641345, "lon": -31.963296079374064, "alt_km": 674.6860801689218, "timestamp": "2025-12-23T16:57:12.739419+00:00", "meta": {"OBJECT_NAME": "IRIDIUM 33 DEB", "OBJECT_ID": "1997-051MY", "EPOCH": "2025-12-23T05:30:39.282048", "MEAN_MOTION": 14.66371317, "ECCENTRICITY": 0.00256051, "INCLINATION": 86.3298, "RA_OF_ASC_NODE": 321.9796, "ARG_OF_PERICENTER": 176.8175, "MEAN_ANOMALY": 248.0263, "EPHEMERIS_TYPE": 0, "CLASSIFICATION_TYPE": "U", "NORAD_CAT_ID": 34896, "ELEMENT_SET_NO": 999, "REV_AT_EPOCH": 87773, "BSTAR": 0.00090985385, "MEAN_MOTION_DOT": 5.072e-05, "MEAN_MOTION_DDOT": 0}, "tle": {"line1": "1 34896U 97051MY  25357.22962132  .00005072  00000+0  90985-3 0  9998", "line2": "2 34896  86.3298 321.9796 0025605 176.8175 248.0263 14.66371317877734"}}, "geometry": {"type": "Point", "coordinates": [-31.963296079374064, 59.55962928641345]}}, {"type": "Feature", "properties": {"norad_id": 34926, "name": "IRIDIUM 33 DEB", "group": "iridium-33-debris", "lat": 46.712214212180115, "lon": 7.305335913053698, "alt_km": 752.2615812974345, "timestamp": "2025-12-23T16:57:12.739440+00:00", "meta": {"OBJECT_NAME": "IRIDIUM 33 DEB", "OBJECT_ID": "1997-051NF", "EPOCH": "2025-12-21T19:20:10.732992", "MEAN_MOTION": 14.5478701, "ECCENTRICITY": 0.00744409, "INCLINATION": 86.132, "RA_OF_ASC_NODE": 4.0681, "ARG_OF_PERICENTER": 261.3659, "MEAN_ANOMALY": 276.799, "EPHEMERIS_TYPE": 0, "CLASSIFICATION_TYPE": "U", "NORAD_CAT_ID": 34926, "ELEMENT_SET_NO": 999, "REV_AT_EPOCH": 86588, "BSTAR": 0.0043404181, "MEAN_MOTION_DOT": 0.0001936, "MEAN_MOTION_DDOT": 0}, "tle": {"line1": "1 34926U 97051NF  25355.80567978  .00019360  00000+0  43404-2 0  9991", "line2": "2 34926  86.1320   4.0681 0074440 261.3659 276.7990 14.54787010865888"}}, "geometry": {"type": "Point", "coordinates": [7.305335913053698, 46.712214212180115]}}, {"type": "Feature", "properties": {"norad_id": 34985, "name": "IRIDIUM 33 DEB", "group": "iridium-33-debris", "lat": 33.50572083507068, "lon": 54.61102095351199, "alt_km": 763.0023247205454, "timestamp": "2025-12-23T16:57:12.739457+00:00", "meta": {"OBJECT_NAME": "IRIDIUM 33 DEB", "OBJECT_ID": "1997-051NR", "EPOCH": "2025-12-21T03:18:55.645056", "MEAN_MOTION": 14.42041434, "ECCENTRICITY": 0.00216435, "INCLINATION": 86.369, "RA_OF_ASC_NODE": 53.2972, "ARG_OF_PERICENTER": 191.5239, "MEAN_ANOMALY": 198.031, "EPHEMERIS_TYPE": 0, "CLASSIFICATION_TYPE": "U", "NORAD_CAT_ID": 34985, "ELEMENT_SET_NO": 999, "REV_AT_EPOCH": 87296, "BSTAR": 0.00042163262, "MEAN_MOTION_DOT": 1.407e-05, "MEAN_MOTION_DDOT": 0}, "tle": {"line1": "1 34985U 97051NR  25355.13814404  .00001407  00000+0  42163-3 0  9996", "line2": "2 34985  86.3690  53.2972 0021643 191.5239 198.0310 14.42041434872968"}}, "geometry": {"type": "Point", "coordinates": [54.61102095351199, 33.50572083507068]}}, {"type": "Feature", "properties": {"norad_id": 35051, "name": "IRIDIUM 33 DEB", "group": "iridium-33-debris", "lat": -7.119698542815561, "lon": -175.45778921604807, "alt_km": 741.6940840588386, "timestamp": "2025-12-23T16:57:12.739473+00:00", "meta": {"OBJECT_NAME": "IRIDIUM 33 DEB", "OBJECT_ID": "1997-051NX", "EPOCH": "2025-12-22T18:31:37.744896", "MEAN_MOTION": 14.47639956, "ECCENTRICITY": 0.0010302, "INCLINATION": 86.324, "RA_OF_ASC_NODE": 4.4893, "ARG_OF_PERICENTER": 63.2582, "MEAN_ANOMALY": 296.9674, "EPHEMERIS_TYPE": 0, "CLASSIFICATION_TYPE": "U", "NORAD_CAT_ID": 35051, "ELEMENT_SET_NO": 999, "REV_AT_EPOCH": 87141, "BSTAR": 0.00060447572, "MEAN_MOTION_DOT": 2.248e-05, "MEAN_MOTION_DDOT": 0}, "tle": {"line1": "1 35051U 97051NX  25356.77196464  .00002248  00000+0  60448-3 0  9991", "line2": "2 35051  86.3240   4.4893 0010302  63.2582 296.9674 14.47639956871417"}}, "geometry": {"type": "Point", "coordinates": [-175.45778921604807, -7.119698542815561]}}, {"type": "Feature", "properties": {"norad_id": 35052, "name": "IRIDIUM 33 DEB", "group": "iridium-33-debris", "lat": -23.78306951289126, "lon": 14.152831427316844, "alt_km": 766.9867157559183, "timestamp": "2025-12-23T16:57:12.739489+00:00", "meta": {"OBJECT_NAME": "IRIDIUM 33 DEB", "OBJECT_ID": "1997-051NY", "EPOCH": "2025-12-22T19:21:39.718080", "MEAN_MOTION": 14.38503197, "ECCENTRICITY": 0.0013247, "INCLINATION": 86.3299, "RA_OF_ASC_NODE": 16.1594, "ARG_OF_PERICENTER": 56.9072, "MEAN_ANOMALY": 303.3396, "EPHEMERIS_TYPE": 0, "CLASSIFICATION_TYPE": "U", "NORAD_CAT_ID": 35052, "ELEMENT_SET_NO": 999, "REV_AT_EPOCH": 87420, "BSTAR": 0.0001619794, "MEAN_MOTION_DOT": 5.15e-06, "MEAN_MOTION_DDOT": 0}, "tle": {"line1": "1 35052U 97051NY  25356.80670970  .00000515  00000+0  16198-3 0  9993", "line2": "2 35052  86.3299  16.1594 0013247  56.9072 303.3396 14.38503197874205"}}, "geometry": {"type": "Point", "coordinates": [14.152831427316844, -23.78306951289126]}}, {"type": "Feature", "properties": {"norad_id": 35080, "name": "IRIDIUM 33 DEB", "group": "iridium-33-debris", "lat": -70.94990370094719, "lon": -121.7942265293345, "alt_km": 627.3963075569673, "timestamp": "2025-12-23T16:57:12.739505+00:00", "meta": {"OBJECT_NAME": "IRIDIUM 33 DEB", "OBJECT_ID": "1997-051PF", "EPOCH": "2025-12-22T02:41:19.588992", "MEAN_MOTION": 14.87041021, "ECCENTRICITY": 0.005881, "INCLINATION": 86.2075, "RA_OF_ASC_NODE": 47.8936, "ARG_OF_PERICENTER": 147.3702, "MEAN_ANOMALY": 213.1179, "EPHEMERIS_TYPE": 0, "CLASSIFICATION_TYPE": "U", "NORAD_CAT_ID": 35080, "ELEMENT_SET_NO": 999, "REV_AT_EPOCH": 69827, "BSTAR": 0.0071992624, "MEAN_MOTION_DOT": 0.00067147, "MEAN_MOTION_DDOT": 0}, "tle": {"line1": "1 35080U 97051PF  25356.11203228  .00067147  00000+0  71993-2 0  9993", "line2": "2 35080  86.2075  47.8936 0058810 147.3702 213.1179 14.87041021698273"}}, "geometry": {"type": "Point", "coordinates": [-121.7942265293345, -70.94990370094719]}}, {"type": "Feature", "properties": {"norad_id": 35297, "name": "IRIDIUM 33 DEB", "group": "iridium-33-debris", "lat": 32.92207433149503, "lon": -124.26819189458818, "alt_km": 729.3956092645503, "timestamp": "2025-12-23T16:57:12.739521+00:00", "meta": {"OBJECT_NAME": "IRIDIUM 33 DEB", "OBJECT_ID": "1997-051PM", "EPOCH": "2025-12-22T21:59:54.464640", "MEAN_MOTION": 14.45198443, "ECCENTRICITY": 0.0018277, "INCLINATION": 86.3852, "RA_OF_ASC_NODE": 58.4147, "ARG_OF_PERICENTER": 110.0569, "MEAN_ANOMALY": 250.2602, "EPHEMERIS_TYPE": 0, "CLASSIFICATION_TYPE": "U", "NORAD_CAT_ID": 35297, "ELEMENT_SET_NO": 999, "REV_AT_EPOCH": 70573, "BSTAR": 0.00060275, "MEAN_MOTION_DOT": 2.134e-05, "MEAN_MOTION_DDOT": 0}, "tle": {"line1": "1 35297U 97051PM  25356.91660260  .00002134  00000+0  60275-3 0  9991", "line2": "2 35297  86.3852  58.4147 0018277 110.0569 250.2602 14.45198443705738"}}, "geometry": {"type": "Point", "coordinates": [-124.26819189458818, 32.92207433149503]}}, {"type": "Feature", "properties": {"norad_id": 35299, "name": "IRIDIUM 33 DEB", "group": "iridium-33-debris", "lat": -86.28254477681665, "lon": -59.50542252308101, "alt_km": 801.4164862113239, "timestamp": "2025-12-23T16:57:12.739539+00:00", "meta": {"OBJECT_NAME": "IRIDIUM 33 DEB", "OBJECT_ID": "1997-051PP", "EPOCH": "2025-12-23T02:37:39.072000", "MEAN_MOTION": 14.40910271, "ECCENTRICITY": 0.00585818, "INCLINATION": 86.2874, "RA_OF_ASC_NODE": 28.6713, "ARG_OF_PERICENTER": 69.2338, "MEAN_ANOMALY": 346.7507, "EPHEMERIS_TYPE": 0, "CLASSIFICATION_TYPE": "U", "NORAD_CAT_ID": 35299, "ELEMENT_SET_NO": 999, "REV_AT_EPOCH": 86480, "BSTAR": 0.00082085889, "MEAN_MOTION_DOT": 2.707e-05, "MEAN_MOTION_DDOT": 0}, "tle": {"line1": "1 35299U 97051PP  25357.10948000  .00002707  00000+0  82086-3 0  9996", "line2": "2 35299  86.2874  28.6713 0058581  69.2338 346.7507 14.40910271864807"}}, "geometry": {"type": "Point", "coordinates": [-59.50542252308101, -86.28254477681665]}}]}